{"fetched_at":"2026-07-16T17:46:41.220Z","source":"https://celestrak.org/NORAD/elements/gp.php?NAME=ICEYE&FORMAT=JSON","constellation":"iceye","records":[{"OBJECT_NAME":"ICEYE-X2","OBJECT_ID":"2018-099AU","EPOCH":"2026-07-16T06:42:28.079424","CLASSIFICATION_TYPE":"U","MEAN_MOTION":15.18048183,"ECCENTRICITY":0.00098849,"INCLINATION":97.4338,"RA_OF_ASC_NODE":250.6109,"ARG_OF_PERICENTER":191.5246,"MEAN_ANOMALY":168.5764,"EPHEMERIS_TYPE":0,"NORAD_CAT_ID":43800,"ELEMENT_SET_NO":999,"REV_AT_EPOCH":41723,"BSTAR":0.0001336159,"MEAN_MOTION_DOT":0.00002656,"MEAN_MOTION_DDOT":0},{"OBJECT_NAME":"ICEYE-X4","OBJECT_ID":"2019-038D","EPOCH":"2026-07-16T05:50:30.551424","CLASSIFICATION_TYPE":"U","MEAN_MOTION":15.29894891,"ECCENTRICITY":0.0012984,"INCLINATION":97.8742,"RA_OF_ASC_NODE":231.8756,"ARG_OF_PERICENTER":194.2437,"MEAN_ANOMALY":165.8438,"EPHEMERIS_TYPE":0,"NORAD_CAT_ID":44390,"ELEMENT_SET_NO":999,"REV_AT_EPOCH":38624,"BSTAR":0.00022086574,"MEAN_MOTION_DOT":0.00006323,"MEAN_MOTION_DDOT":0},{"OBJECT_NAME":"ICEYE-X7","OBJECT_ID":"2020-068L","EPOCH":"2026-07-16T06:37:03.873792","CLASSIFICATION_TYPE":"U","MEAN_MOTION":15.3210961,"ECCENTRICITY":0.00061196,"INCLINATION":97.7511,"RA_OF_ASC_NODE":165.1394,"ARG_OF_PERICENTER":208.3555,"MEAN_ANOMALY":151.7354,"EPHEMERIS_TYPE":0,"NORAD_CAT_ID":46496,"ELEMENT_SET_NO":999,"REV_AT_EPOCH":31924,"BSTAR":0.00019334681,"MEAN_MOTION_DOT":0.00005912,"MEAN_MOTION_DDOT":0},{"OBJECT_NAME":"ICEYE-X6","OBJECT_ID":"2020-068M","EPOCH":"2026-07-16T06:05:09.816576","CLASSIFICATION_TYPE":"U","MEAN_MOTION":15.04670144,"ECCENTRICITY":0.0007148,"INCLINATION":98.0991,"RA_OF_ASC_NODE":192.3189,"ARG_OF_PERICENTER":7.5767,"MEAN_ANOMALY":352.5564,"EPHEMERIS_TYPE":0,"NORAD_CAT_ID":46497,"ELEMENT_SET_NO":999,"REV_AT_EPOCH":31760,"BSTAR":0.00010377652,"MEAN_MOTION_DOT":0.00001392,"MEAN_MOTION_DDOT":0},{"OBJECT_NAME":"ICEYE-X21","OBJECT_ID":"2023-001AS","EPOCH":"2026-06-24T05:11:18.420288","CLASSIFICATION_TYPE":"U","MEAN_MOTION":16.24069885,"ECCENTRICITY":0.00123774,"INCLINATION":97.3001,"RA_OF_ASC_NODE":262.6152,"ARG_OF_PERICENTER":285.9702,"MEAN_ANOMALY":74.0225,"EPHEMERIS_TYPE":0,"NORAD_CAT_ID":55049,"ELEMENT_SET_NO":999,"REV_AT_EPOCH":19475,"BSTAR":0.000602142,"MEAN_MOTION_DOT":0.01585954,"MEAN_MOTION_DDOT":0.000002396838},{"OBJECT_NAME":"ICEYE-X25","OBJECT_ID":"2023-084AH","EPOCH":"2026-07-16T08:11:02.857056","CLASSIFICATION_TYPE":"U","MEAN_MOTION":15.62889204,"ECCENTRICITY":0.00043521,"INCLINATION":97.5917,"RA_OF_ASC_NODE":345.6613,"ARG_OF_PERICENTER":181.9501,"MEAN_ANOMALY":178.1741,"EPHEMERIS_TYPE":0,"NORAD_CAT_ID":56963,"ELEMENT_SET_NO":999,"REV_AT_EPOCH":17252,"BSTAR":0.00026136588,"MEAN_MOTION_DOT":0.0002351,"MEAN_MOTION_DDOT":0},{"OBJECT_NAME":"ICEYE-X31","OBJECT_ID":"2023-174AJ","EPOCH":"2026-07-16T06:43:44.626368","CLASSIFICATION_TYPE":"U","MEAN_MOTION":15.35198933,"ECCENTRICITY":0.00028606,"INCLINATION":97.3771,"RA_OF_ASC_NODE":273.0291,"ARG_OF_PERICENTER":182.586,"MEAN_ANOMALY":177.5369,"EPHEMERIS_TYPE":0,"NORAD_CAT_ID":58288,"ELEMENT_SET_NO":999,"REV_AT_EPOCH":14921,"BSTAR":0.00029051052,"MEAN_MOTION_DOT":0.00009849,"MEAN_MOTION_DDOT":0},{"OBJECT_NAME":"ICEYE-X34","OBJECT_ID":"2023-174AQ","EPOCH":"2026-07-16T05:06:10.672992","CLASSIFICATION_TYPE":"U","MEAN_MOTION":15.71523968,"ECCENTRICITY":0.00019197,"INCLINATION":97.3861,"RA_OF_ASC_NODE":289.936,"ARG_OF_PERICENTER":212.3053,"MEAN_ANOMALY":147.8093,"EPHEMERIS_TYPE":0,"NORAD_CAT_ID":58294,"ELEMENT_SET_NO":999,"REV_AT_EPOCH":15029,"BSTAR":0.00079320629,"MEAN_MOTION_DOT":0.0010234,"MEAN_MOTION_DDOT":0},{"OBJECT_NAME":"ICEYE-X35","OBJECT_ID":"2023-174AY","EPOCH":"2026-07-16T06:49:37.742304","CLASSIFICATION_TYPE":"U","MEAN_MOTION":15.55240463,"ECCENTRICITY":0.00076451,"INCLINATION":97.3788,"RA_OF_ASC_NODE":282.7172,"ARG_OF_PERICENTER":104.3832,"MEAN_ANOMALY":255.8271,"EPHEMERIS_TYPE":0,"NORAD_CAT_ID":58302,"ELEMENT_SET_NO":999,"REV_AT_EPOCH":14986,"BSTAR":0.00057758816,"MEAN_MOTION_DOT":0.0003914,"MEAN_MOTION_DDOT":0},{"OBJECT_NAME":"ICEYE-X38","OBJECT_ID":"2024-043C","EPOCH":"2026-07-16T06:48:16.806240","CLASSIFICATION_TYPE":"U","MEAN_MOTION":15.13095938,"ECCENTRICITY":0.00022453,"INCLINATION":97.844,"RA_OF_ASC_NODE":341.8406,"ARG_OF_PERICENTER":18.2872,"MEAN_ANOMALY":341.8438,"EPHEMERIS_TYPE":0,"NORAD_CAT_ID":59100,"ELEMENT_SET_NO":999,"REV_AT_EPOCH":11607,"BSTAR":0.00014734826,"MEAN_MOTION_DOT":0.00002538,"MEAN_MOTION_DDOT":0},{"OBJECT_NAME":"ICEYE-X37","OBJECT_ID":"2024-043E","EPOCH":"2026-07-16T05:05:10.114368","CLASSIFICATION_TYPE":"U","MEAN_MOTION":15.06294215,"ECCENTRICITY":0.0013839,"INCLINATION":97.8342,"RA_OF_ASC_NODE":334.6774,"ARG_OF_PERICENTER":270.5356,"MEAN_ANOMALY":89.4285,"EPHEMERIS_TYPE":0,"NORAD_CAT_ID":59102,"ELEMENT_SET_NO":999,"REV_AT_EPOCH":12945,"BSTAR":0.00012006544,"MEAN_MOTION_DOT":0.00001701,"MEAN_MOTION_DDOT":0},{"OBJECT_NAME":"ICEYE-X36","OBJECT_ID":"2024-043F","EPOCH":"2026-07-16T04:46:07.352544","CLASSIFICATION_TYPE":"U","MEAN_MOTION":15.0723841,"ECCENTRICITY":0.00053956,"INCLINATION":97.8405,"RA_OF_ASC_NODE":335.7956,"ARG_OF_PERICENTER":210.2761,"MEAN_ANOMALY":149.8155,"EPHEMERIS_TYPE":0,"NORAD_CAT_ID":59103,"ELEMENT_SET_NO":999,"REV_AT_EPOCH":12951,"BSTAR":0.00017258592,"MEAN_MOTION_DOT":0.00002535,"MEAN_MOTION_DDOT":0},{"OBJECT_NAME":"ICEYE-X43","OBJECT_ID":"2024-149BZ","EPOCH":"2026-07-16T04:27:21.017088","CLASSIFICATION_TYPE":"U","MEAN_MOTION":14.99787771,"ECCENTRICITY":0.00064585,"INCLINATION":97.6797,"RA_OF_ASC_NODE":273.7616,"ARG_OF_PERICENTER":343.3894,"MEAN_ANOMALY":16.7117,"EPHEMERIS_TYPE":0,"NORAD_CAT_ID":60539,"ELEMENT_SET_NO":999,"REV_AT_EPOCH":10446,"BSTAR":0.000057760247,"MEAN_MOTION_DOT":0.00000655,"MEAN_MOTION_DDOT":0},{"OBJECT_NAME":"ICEYE-X39","OBJECT_ID":"2024-149CG","EPOCH":"2026-07-16T03:53:18.759552","CLASSIFICATION_TYPE":"U","MEAN_MOTION":15.00077171,"ECCENTRICITY":0.00069199,"INCLINATION":97.679,"RA_OF_ASC_NODE":273.7955,"ARG_OF_PERICENTER":43.9977,"MEAN_ANOMALY":316.1796,"EPHEMERIS_TYPE":0,"NORAD_CAT_ID":60546,"ELEMENT_SET_NO":999,"REV_AT_EPOCH":10446,"BSTAR":0.00018243618,"MEAN_MOTION_DOT":0.00002215,"MEAN_MOTION_DDOT":0},{"OBJECT_NAME":"ICEYE-X33","OBJECT_ID":"2024-149CJ","EPOCH":"2026-07-16T05:40:36.822720","CLASSIFICATION_TYPE":"U","MEAN_MOTION":15.008902,"ECCENTRICITY":0.00019032,"INCLINATION":97.7368,"RA_OF_ASC_NODE":276.2322,"ARG_OF_PERICENTER":73.9344,"MEAN_ANOMALY":286.209,"EPHEMERIS_TYPE":0,"NORAD_CAT_ID":60548,"ELEMENT_SET_NO":999,"REV_AT_EPOCH":10456,"BSTAR":0.00020683847,"MEAN_MOTION_DOT":0.00002572,"MEAN_MOTION_DDOT":0}]}
