ICEYE-X2                
1 43800U 18099AU  26197.27949166  .00002656  00000+0  13362-3 0  9997
2 43800  97.4338 250.6109 0009884 191.5246 168.5764 15.18048183417234
ICEYE-X4                
1 44390U 19038D   26197.24340916  .00006323  00000+0  22087-3 0  9990
2 44390  97.8742 231.8756 0012984 194.2437 165.8438 15.29894891386249
ICEYE-X7                
1 46496U 20068L   26197.27573928  .00005912  00000+0  19335-3 0  9993
2 46496  97.7511 165.1394 0006119 208.3555 151.7354 15.32109610319248
ICEYE-X6                
1 46497U 20068M   26197.25358584  .00001392  00000+0  10378-3 0  9997
2 46497  98.0991 192.3189 0007148   7.5767 352.5564 15.04670144317602
ICEYE-X21               
1 55049U 23001AS  26175.21618542  .01585954  23968-5  60214-3 0  9995
2 55049  97.3001 262.6152 0012377 285.9702  74.0225 16.24069885194757
ICEYE-X25               
1 56963U 23084AH  26197.34100529  .00023510  00000+0  26137-3 0  9997
2 56963  97.5917 345.6613 0004352 181.9501 178.1741 15.62889204172527
ICEYE-X31               
1 58288U 23174AJ  26197.28037762  .00009849  00000+0  29051-3 0  9997
2 58288  97.3771 273.0291 0002860 182.5860 177.5369 15.35198933149219
ICEYE-X34               
1 58294U 23174AQ  26197.21262353  .00102340  00000+0  79321-3 0  9998
2 58294  97.3861 289.9360 0001919 212.3053 147.8093 15.71523968150293
ICEYE-X35               
1 58302U 23174AY  26197.28446461  .00039140  00000+0  57759-3 0  9997
2 58302  97.3788 282.7172 0007645 104.3832 255.8271 15.55240463149867
ICEYE-X38               
1 59100U 24043C   26197.28352785  .00002538  00000+0  14735-3 0  9993
2 59100  97.8440 341.8406 0002245  18.2872 341.8438 15.13095938116076
ICEYE-X37               
1 59102U 24043E   26197.21192262  .00001701  00000+0  12007-3 0  9991
2 59102  97.8342 334.6774 0013839 270.5356  89.4285 15.06294215129450
ICEYE-X36               
1 59103U 24043F   26197.19869621  .00002535  00000+0  17259-3 0  9999
2 59103  97.8405 335.7956 0005395 210.2761 149.8155 15.07238410129514
ICEYE-X43               
1 60539U 24149BZ  26197.18565992  .00000655  00000+0  57760-4 0  9997
2 60539  97.6797 273.7616 0006458 343.3894  16.7117 14.99787771104467
ICEYE-X39               
1 60546U 24149CG  26197.16202268  .00002215  00000+0  18244-3 0  9994
2 60546  97.6790 273.7955 0006919  43.9977 316.1796 15.00077171104460
ICEYE-X33               
1 60548U 24149CJ  26197.23653730  .00002572  00000+0  20684-3 0  9995
2 60548  97.7368 276.2322 0001903  73.9344 286.2090 15.00890200104560
